start=new Date('2022-05-31T00:00:00.000Z').valueOf();
sats=[{"CLASSIFICATION_TYPE":"U","SITE":"AFETR","PERIAPSIS":"546.443","TLE_LINE1":"1 46374U 20062BB  22150.89459104 -.00000787  00000-0 -33999-4 0  9995","OBJECT_TYPE":"PAYLOAD","LAUNCH_DATE":"2020-09-03","ELEMENT_SET_NO":"999","MEAN_ANOMALY":"259.7940","COUNTRY_CODE":"US","INCLINATION":"53.0539","TIME_SYSTEM":"UTC","APOAPSIS":"548.118","EPHEMERIS_TYPE":"0","RCS_SIZE":"LARGE","ECCENTRICITY":"0.00012090","NORAD_CAT_ID":"46374","RA_OF_ASC_NODE":"16.2837","MEAN_ELEMENT_THEORY":"SGP4","MEAN_MOTION_DDOT":"0.0000000000000","PERIOD":"95.594","EPOCH":"2022-05-30T21:28:12.665856","ARG_OF_PERICENTER":"100.3185","MEAN_MOTION":"15.06378174","SEMIMAJOR_AXIS":"6925.415","FILE":"3472994","CENTER_NAME":"EARTH","REF_FRAME":"TEME","GP_ID":"204976372","MEAN_MOTION_DOT":"-0.00000787","DECAY_DATE":null,"REV_AT_EPOCH":"9747","BSTAR":"-0.00003399900000","TLE_LINE2":"2 46374  53.0539  16.2837 0001209 100.3185 259.7940 15.06378174 97473","OBJECT_NAME":"STARLINK-1711","OBJECT_ID":"2020-062BB"},{"EPOCH":"2022-05-30T02:42:18.669312","PERIOD":"95.593","RA_OF_ASC_NODE":"44.7697","NORAD_CAT_ID":"46375","ECCENTRICITY":"0.00017560","MEAN_MOTION_DDOT":"0.0000000000000","MEAN_ELEMENT_THEORY":"SGP4","TIME_SYSTEM":"UTC","APOAPSIS":"548.484","INCLINATION":"53.0554","COUNTRY_CODE":"US","ELEMENT_SET_NO":"999","MEAN_ANOMALY":"318.1761","LAUNCH_DATE":"2020-09-03","OBJECT_TYPE":"PAYLOAD","RCS_SIZE":"LARGE","EPHEMERIS_TYPE":"0","TLE_LINE1":"1 46375U 20062BC  22150.11271608 -.00002530  00000-0 -15107-3 0  9990","PERIAPSIS":"546.052","CLASSIFICATION_TYPE":"U","SITE":"AFETR","TLE_LINE2":"2 46375  53.0554  44.7697 0001756  41.9363 318.1761 15.06382235 97009","BSTAR":"-0.00015107000000","OBJECT_ID":"2020-062BC","OBJECT_NAME":"STARLINK-1724","GP_ID":"204939404","REF_FRAME":"TEME","REV_AT_EPOCH":"9700","DECAY_DATE":null,"MEAN_MOTION_DOT":"-0.00002530","FILE":"3472495","CENTER_NAME":"EARTH","ARG_OF_PERICENTER":"41.9363","SEMIMAJOR_AXIS":"6925.403","MEAN_MOTION":"15.06382235"},{"ARG_OF_PERICENTER":"66.5418","MEAN_MOTION":"15.06385503","SEMIMAJOR_AXIS":"6925.393","FILE":"3472994","CENTER_NAME":"EARTH","REF_FRAME":"TEME","GP_ID":"204974875","MEAN_MOTION_DOT":"-0.00001148","REV_AT_EPOCH":"9711","DECAY_DATE":null,"BSTAR":"-0.00005821100000","TLE_LINE2":"2 46376  53.0563  41.4483 0001716  66.5418 293.5751 15.06385503 97115","OBJECT_NAME":"STARLINK-1742","OBJECT_ID":"2020-062BD","CLASSIFICATION_TYPE":"U","SITE":"AFETR","TLE_LINE1":"1 46376U 20062BD  22150.85727062 -.00001148  00000-0 -58211-4 0  9990","PERIAPSIS":"546.070","MEAN_ANOMALY":"293.5751","ELEMENT_SET_NO":"999","OBJECT_TYPE":"PAYLOAD","LAUNCH_DATE":"2020-09-03","APOAPSIS":"548.446","TIME_SYSTEM":"UTC","COUNTRY_CODE":"US","INCLINATION":"53.0563","EPHEMERIS_TYPE":"0","RCS_SIZE":"LARGE","ECCENTRICITY":"0.00017160","RA_OF_ASC_NODE":"41.4483","NORAD_CAT_ID":"46376","MEAN_ELEMENT_THEORY":"SGP4","MEAN_MOTION_DDOT":"0.0000000000000","EPOCH":"2022-05-30T20:34:28.181568","PERIOD":"95.593"},{"BSTAR":"-0.00019273000000","TLE_LINE2":"2 46380  53.0579  68.0844 0001929  55.7114 304.4057 15.06375333 96718","OBJECT_ID":"2020-062BH","OBJECT_NAME":"STARLINK-1758","GP_ID":"204938403","REF_FRAME":"TEME","REV_AT_EPOCH":"9671","DECAY_DATE":null,"MEAN_MOTION_DOT":"-0.00003149","FILE":"3472495","CENTER_NAME":"EARTH","ARG_OF_PERICENTER":"55.7114","SEMIMAJOR_AXIS":"6925.424","MEAN_MOTION":"15.06375333","EPOCH":"2022-05-30T11:48:21.269376","PERIOD":"95.594","RA_OF_ASC_NODE":"68.0844","NORAD_CAT_ID":"46380","ECCENTRICITY":"0.00019290","MEAN_ELEMENT_THEORY":"SGP4","MEAN_MOTION_DDOT":"0.0000000000000","APOAPSIS":"548.625","TIME_SYSTEM":"UTC","COUNTRY_CODE":"US","INCLINATION":"53.0579","MEAN_ANOMALY":"304.4057","ELEMENT_SET_NO":"999","OBJECT_TYPE":"PAYLOAD","LAUNCH_DATE":"2020-09-03","RCS_SIZE":"LARGE","EPHEMERIS_TYPE":"0","TLE_LINE1":"1 46380U 20062BH  22150.49191284 -.00003149  00000-0 -19273-3 0  9993","PERIAPSIS":"545.953","SITE":"AFETR","CLASSIFICATION_TYPE":"U"},{"ARG_OF_PERICENTER":"50.2120","SEMIMAJOR_AXIS":"6925.365","MEAN_MOTION":"15.06394739","FILE":"3472994","CENTER_NAME":"EARTH","REF_FRAME":"TEME","GP_ID":"204975873","DECAY_DATE":null,"REV_AT_EPOCH":"9712","MEAN_MOTION_DOT":"-0.00001405","BSTAR":"-0.00007545100000","TLE_LINE2":"2 46382  53.0557  41.3838 0001774  50.2120 309.9025 15.06394739 97120","OBJECT_ID":"2020-062BK","OBJECT_NAME":"STARLINK-1769","PERIAPSIS":"546.001","TLE_LINE1":"1 46382U 20062BK  22150.87201643 -.00001405  00000-0 -75451-4 0  9992","CLASSIFICATION_TYPE":"U","SITE":"AFETR","INCLINATION":"53.0557","COUNTRY_CODE":"US","APOAPSIS":"548.458","TIME_SYSTEM":"UTC","OBJECT_TYPE":"PAYLOAD","LAUNCH_DATE":"2020-09-03","ELEMENT_SET_NO":"999","MEAN_ANOMALY":"309.9025","RCS_SIZE":"LARGE","EPHEMERIS_TYPE":"0","NORAD_CAT_ID":"46382","RA_OF_ASC_NODE":"41.3838","ECCENTRICITY":"0.00017740","MEAN_ELEMENT_THEORY":"SGP4","MEAN_MOTION_DDOT":"0.0000000000000","PERIOD":"95.592","EPOCH":"2022-05-30T20:55:42.219552"},{"APOAPSIS":"548.473","TIME_SYSTEM":"UTC","COUNTRY_CODE":"US","INCLINATION":"53.0552","ELEMENT_SET_NO":"999","MEAN_ANOMALY":"300.3591","OBJECT_TYPE":"PAYLOAD","LAUNCH_DATE":"2020-09-03","RCS_SIZE":"LARGE","EPHEMERIS_TYPE":"0","TLE_LINE1":"1 46383U 20062BL  22150.52690500 -.00002120  00000-0 -12347-3 0  9998","PERIAPSIS":"546.013","SITE":"AFETR","CLASSIFICATION_TYPE":"U","EPOCH":"2022-05-30T12:38:44.592000","PERIOD":"95.593","RA_OF_ASC_NODE":"87.9292","NORAD_CAT_ID":"46383","ECCENTRICITY":"0.00017760","MEAN_ELEMENT_THEORY":"SGP4","MEAN_MOTION_DDOT":"0.0000000000000","FILE":"3472495","CENTER_NAME":"EARTH","ARG_OF_PERICENTER":"59.7574","SEMIMAJOR_AXIS":"6925.378","MEAN_MOTION":"15.06390528","TLE_LINE2":"2 46383  53.0552  87.9292 0001776  59.7574 300.3591 15.06390528 96433","BSTAR":"-0.00012347000000","OBJECT_ID":"2020-062BL","OBJECT_NAME":"STARLINK-1770","GP_ID":"204939904","REF_FRAME":"TEME","REV_AT_EPOCH":"9643","DECAY_DATE":null,"MEAN_MOTION_DOT":"-0.00002120"},{"TIME_SYSTEM":"UTC","APOAPSIS":"548.420","INCLINATION":"53.0556","COUNTRY_CODE":"US","MEAN_ANOMALY":"324.2349","ELEMENT_SET_NO":"999","LAUNCH_DATE":"2020-09-03","OBJECT_TYPE":"PAYLOAD","RCS_SIZE":"LARGE","EPHEMERIS_TYPE":"0","TLE_LINE1":"1 46384U 20062BM  22150.79599529  .00000973  00000-0  84284-4 0  9999","PERIAPSIS":"546.176","CLASSIFICATION_TYPE":"U","SITE":"AFETR","EPOCH":"2022-05-30T19:06:13.993056","PERIOD":"95.594","RA_OF_ASC_NODE":"86.7259","NORAD_CAT_ID":"46384","ECCENTRICITY":"0.00016200","MEAN_ELEMENT_THEORY":"SGP4","MEAN_MOTION_DDOT":"0.0000000000000","FILE":"3472994","CENTER_NAME":"EARTH","ARG_OF_PERICENTER":"35.8749","SEMIMAJOR_AXIS":"6925.433","MEAN_MOTION":"15.06372395","BSTAR":"0.00008428400000","TLE_LINE2":"2 46384  53.0556  86.7259 0001620  35.8749 324.2349 15.06372395 96477","OBJECT_ID":"2020-062BM","OBJECT_NAME":"STARLINK-1771","REF_FRAME":"TEME","GP_ID":"204975375","REV_AT_EPOCH":"9647","DECAY_DATE":null,"MEAN_MOTION_DOT":"0.00000973"},{"BSTAR":"-0.00005570500000","TLE_LINE2":"2 46532  53.0548 247.3049 0001511  82.1692 277.9468 15.06387855 91654","OBJECT_ID":"2020-070A","OBJECT_NAME":"STARLINK-1644","GP_ID":"204976891","REF_FRAME":"TEME","DECAY_DATE":null,"REV_AT_EPOCH":"9165","MEAN_MOTION_DOT":"-0.00001111","FILE":"3472994","CENTER_NAME":"EARTH","ARG_OF_PERICENTER":"82.1692","SEMIMAJOR_AXIS":"6925.386","MEAN_MOTION":"15.06387855","PERIOD":"95.593","EPOCH":"2022-05-30T15:55:09.660864","NORAD_CAT_ID":"46532","RA_OF_ASC_NODE":"247.3049","ECCENTRICITY":"0.00015110","MEAN_ELEMENT_THEORY":"SGP4","MEAN_MOTION_DDOT":"0.0000000000000","INCLINATION":"53.0548","COUNTRY_CODE":"US","TIME_SYSTEM":"UTC","APOAPSIS":"548.297","OBJECT_TYPE":"PAYLOAD","LAUNCH_DATE":"2020-10-06","ELEMENT_SET_NO":"999","MEAN_ANOMALY":"277.9468","RCS_SIZE":"LARGE","EPHEMERIS_TYPE":"0","PERIAPSIS":"546.204","TLE_LINE1":"1 46532U 20070A   22150.66330626 -.00001111  00000-0 -55705-4 0  9993","SITE":"AFETR","CLASSIFICATION_TYPE":"U"},{"EPOCH":"2022-05-30T16:11:04.921728","PERIOD":"95.593","MEAN_ELEMENT_THEORY":"SGP4","MEAN_MOTION_DDOT":"0.0000000000000","ECCENTRICITY":"0.00020090","RA_OF_ASC_NODE":"247.2482","NORAD_CAT_ID":"46533","EPHEMERIS_TYPE":"0","RCS_SIZE":"LARGE","MEAN_ANOMALY":"299.6548","ELEMENT_SET_NO":"999","OBJECT_TYPE":"PAYLOAD","LAUNCH_DATE":"2020-10-06","APOAPSIS":"548.652","TIME_SYSTEM":"UTC","COUNTRY_CODE":"US","INCLINATION":"53.0543","CLASSIFICATION_TYPE":"U","SITE":"AFETR","TLE_LINE1":"1 46533U 20070B   22150.67436252 -.00002668  00000-0 -16032-3 0  9994","PERIAPSIS":"545.869","OBJECT_NAME":"STARLINK-1648","OBJECT_ID":"2020-070B","TLE_LINE2":"2 46533  53.0543 247.2482 0002009  60.4641 299.6548 15.06384766 91654","BSTAR":"-0.00016032000000","MEAN_MOTION_DOT":"-0.00002668","REV_AT_EPOCH":"9165","DECAY_DATE":null,"GP_ID":"204975887","REF_FRAME":"TEME","CENTER_NAME":"EARTH","FILE":"3472994","MEAN_MOTION":"15.06384766","SEMIMAJOR_AXIS":"6925.395","ARG_OF_PERICENTER":"60.4641"},{"EPHEMERIS_TYPE":"0","RCS_SIZE":"LARGE","OBJECT_TYPE":"PAYLOAD","LAUNCH_DATE":"2020-10-06","ELEMENT_SET_NO":"999","MEAN_ANOMALY":"310.2745","INCLINATION":"53.0532","COUNTRY_CODE":"US","APOAPSIS":"548.375","TIME_SYSTEM":"UTC","SITE":"AFETR","CLASSIFICATION_TYPE":"U","PERIAPSIS":"546.261","TLE_LINE1":"1 46534U 20070C   22150.78862364  .00003607  00000-0  26115-3 0  9999","PERIOD":"95.594","EPOCH":"2022-05-30T18:55:37.082496","MEAN_ELEMENT_THEORY":"SGP4","MEAN_MOTION_DDOT":"0.0000000000000","ECCENTRICITY":"0.00015260","NORAD_CAT_ID":"46534","RA_OF_ASC_NODE":"246.7533","CENTER_NAME":"EARTH","FILE":"3472994","MEAN_MOTION":"15.06365894","SEMIMAJOR_AXIS":"6925.453","ARG_OF_PERICENTER":"49.8378","OBJECT_NAME":"STARLINK-1659","OBJECT_ID":"2020-070C","BSTAR":"0.00026115000000","TLE_LINE2":"2 46534  53.0532 246.7533 0001526  49.8378 310.2745 15.06365894 91677","MEAN_MOTION_DOT":"0.00003607","DECAY_DATE":null,"REV_AT_EPOCH":"9167","REF_FRAME":"TEME","GP_ID":"204976638"}];
